GOES 17                 
1 43226U 18022A   26128.81118333 -.00000174  00000+0  00000+0 0  9998
2 43226   0.8367  86.2517 0000699 320.7235  22.2020  1.00271304 30029
FENGYUN 2H              
1 43491U 18050A   26128.84472347 -.00000121  00000+0  00000+0 0  9996
2 43491   2.9302  79.5130 0001243 141.4809  29.1621  1.00274287 29048
METOP-C                 
1 43689U 18087A   26128.79172101  .00000074  00000+0  53594-4 0  9991
2 43689  98.6666 189.1102 0000285  70.6009 289.5199 14.21501256389237
GEO-KOMPSAT-2A          
1 43823U 18100A   26128.85433955 -.00000336  00000+0  00000+0 0  9992
2 43823   0.0460  95.7255 0002224 336.8836 229.9105  1.00272191 27237
METEOR-M2 2             
1 44387U 19038A   26128.90666273 -.00000238  00000+0 -83077-4 0  9998
2 44387  98.9142 115.6166 0002186 109.1946 250.9469 14.24354167355706
ARKTIKA-M 1             
1 47719U 21016A   26128.11849507 -.00000109  00000+0  00000+0 0  9991
2 47719  63.2274  63.4261 7273377 269.7437  14.8678  2.00605471 37986
FENGYUN 3E              
1 49008U 21062A   26128.88109252 -.00000412  00000+0 -17346-3 0  9998
2 49008  98.7506 132.7274 0001506 155.9794 204.1453 14.19899354251006
GOES 18                 
1 51850U 22021A   26128.65922618  .00000104  00000+0  00000+0 0  9997
2 51850   0.0412  84.7872 0000646  20.2160 221.8145  1.00272047  6193
NOAA 21 (JPSS-2)        
1 54234U 22150A   26128.84514465  .00000063  00000+0  50329-4 0  9995
2 54234  98.7044  68.2986 0001124 352.8542   7.2618 14.19558343180969
METEOSAT-12 (MTG-I1)    
1 54743U 22170C   26128.82886339  .00000000  00000+0  00000+0 0  9999
2 54743   0.7370  24.2286 0000939   1.4935 138.9607  1.00272096 12586
TIANMU-1 03             
1 55973U 23039A   26128.84412527  .00014217  00000+0  29139-3 0  9999
2 55973  97.5229 301.3119 0002194 214.7971 145.3135 15.46180435174753
TIANMU-1 04             
1 55974U 23039B   26128.84825622  .00014742  00000+0  29633-3 0  9996
2 55974  97.5165 300.4687 0002898 215.0491 145.0568 15.46739335174762
TIANMU-1 05             
1 55975U 23039C   26128.82310578  .00014491  00000+0  29763-3 0  9999
2 55975  97.5211 300.9193 0001625 246.9288 113.1790 15.46115288174731
TIANMU-1 06             
1 55976U 23039D   26128.84941948  .00014480  00000+0  29191-3 0  9996
2 55976  97.5218 301.5438 0001982 238.3907 121.7149 15.46660043174767
FENGYUN 3G              
1 56232U 23055A   26128.86763339  .00020974  00000+0  33582-3 0  9992
2 56232  49.9917 188.8537 0006083  15.6504 344.4650 15.53007742173895
METEOR-M2 3             
1 57166U 23091A   26128.89206605 -.00000018  00000+0  10831-4 0  9991
2 57166  98.6114 184.6683 0002792 290.0965  69.9913 14.24043377148929
TIANMU-1 07             
1 57399U 23101A   26128.84804648  .00005298  00000+0  18834-3 0  9991
2 57399  97.2621 180.4274 0000481 258.0749 102.0438 15.29414318155632
TIANMU-1 08             
1 57400U 23101B   26128.88074560  .00004822  00000+0  17151-3 0  9993
2 57400  97.2609 180.2343 0002294 239.5215 120.5799 15.29441601155632
TIANMU-1 09             
1 57401U 23101C   26128.86437541  .00005310  00000+0  18854-3 0  9998
2 57401  97.2567 179.6558 0000954 279.7534  80.3599 15.29455786155637
TIANMU-1 10             
1 57402U 23101D   26128.83136471  .00005506  00000+0  19517-3 0  9998
2 57402  97.2646 180.6336 0002306 266.6376  93.4601 15.29490515155621
FENGYUN 3F              
1 57490U 23111A   26128.86588112  .00000037  00000+0  37670-4 0  9997
2 57490  98.6845 199.6039 0001148 115.8310 244.2985 14.19932172143288
ARKTIKA-M 2             
1 58584U 23198A   26127.88273134  .00000170  00000+0  00000+0 0  9993
2 58584  63.2200 158.8550 6891509 267.5523  18.8212  2.00594955 17510
TIANMU-1 11             
1 58645U 23205A   26128.86075229  .00004853  00000+0  18796-3 0  9991
2 58645  97.3476 151.0436 0010345 135.7691 224.4377 15.26589308131529
TIANMU-1 12             
1 58646U 23205B   26128.83002988  .00004819  00000+0  18700-3 0  9998
2 58646  97.3465 150.7776 0008938 120.5370 239.6752 15.26540142131508
TIANMU-1 13             
1 58647U 23205C   26128.85887116  .00004953  00000+0  19179-3 0  9995
2 58647  97.3492 151.0716 0009447 105.7686 254.4595 15.26595583131507
TIANMU-1 14             
1 58648U 23205D   26128.84485721  .00006547  00000+0  25371-3 0  9993
2 58648  97.3427 150.2716 0009791 108.1844 252.0462 15.26442226131504
TIANMU-1 19             
1 58660U 23208A   26128.88206828  .00007496  00000+0  25291-3 0  9998
2 58660  97.4457 245.0107 0006486  97.2526 262.9452 15.30975923131310
TIANMU-1 20             
1 58661U 23208B   26128.81979973  .00007489  00000+0  24343-3 0  9999
2 58661  97.4398 245.5430 0008621 103.9681 256.2520 15.32165389131398
TIANMU-1 21             
1 58662U 23208C   26128.86596742  .00009132  00000+0  27645-3 0  9999
2 58662  97.4456 248.1039 0008547  98.3561 261.8651 15.34373755131532
TIANMU-1 22             
1 58663U 23208D   26128.85120837  .00006816  00000+0  23365-3 0  9998
2 58663  97.4451 244.9477 0005155 115.2200 244.9576 15.30503118131317
TIANMU-1 15             
1 58700U 24004A   26128.84113100  .00005061  00000+0  19592-3 0  9997
2 58700  97.4680 315.0354 0008351 122.0706 238.1344 15.26612987129770
TIANMU-1 16             
1 58701U 24004B   26128.82337212  .00003540  00000+0  13869-3 0  9999
2 58701  97.4625 314.2993 0007056 125.0372 235.1529 15.26433684129770
TIANMU-1 17             
1 58702U 24004C   26128.87433341  .00004908  00000+0  19169-3 0  9993
2 58702  97.4655 314.8201 0006766 127.5241 232.6613 15.26342878129771
TIANMU-1 18             
1 58703U 24004D   26128.85742714  .00004883  00000+0  18928-3 0  9993
2 58703  97.4672 315.0338 0005435 121.1601 239.0171 15.26606966129778
INSAT-3DS               
1 58990U 24033A   26128.84524346 -.00000148  00000+0  00000+0 0  9990
2 58990   0.0740 258.1201 0001602 155.3171 199.6075  1.00272513 46676
METEOR-M2 4             
1 59051U 24039A   26128.86218455  .00000012  00000+0  24892-4 0  9997
2 59051  98.6993  88.6606 0005976 287.3955  72.6569 14.22425442113679
GOES 19                 
1 60133U 24119A   26128.81404336 -.00000240  00000+0  00000+0 0  9993
2 60133   0.0128  65.1846 0000868  39.3272 339.9992  1.00270876  6566
FENGYUN 3H              
1 65815U 25219A   26128.86173251  .00000055  00000+0  46394-4 0  9995
2 65815  98.6752  70.4001 0001283 105.1216 255.0102 14.19913323 31809
OSCAR 7 (AO-7)          
1 07530U 74089B   26128.96484373 -.00000042  00000+0  26691-4 0  9990
2 07530 101.9920 141.8003 0012094 204.3578 228.7041 12.53697413355605
PHASE 3B (AO-10)        
1 14129U 83058B   26128.55096280  .00000137  00000+0  00000+0 0  9994
2 14129  25.8943 226.1595 6024786 104.7456 325.7440  2.05869086294677
UOSAT 2 (UO-11)         
1 14781U 84021B   26128.88759567  .00000938  00000+0  10135-3 0  9992
2 14781  97.8034  94.9113 0006598 324.4672  35.6105 14.90690888251277
LUSAT (LO-19)           
1 20442U 90005G   26128.55318987  .00000095  00000+0  50701-4 0  9991
2 20442  98.8875 149.2623 0010915 327.4270  32.6239 14.34110708896712
EYESAT A (AO-27)        
1 22825U 93061C   26128.91225711  .00000076  00000+0  46038-4 0  9992
2 22825  98.6894 196.3361 0007833 208.6403 151.4350 14.30931532701387
ITAMSAT (IO-26)         
1 22826U 93061D   26128.90336158  .00000065  00000+0  41576-4 0  9990
2 22826  98.6842 196.2408 0008660 191.7275 168.3707 14.31357285701695
RADIO ROSTO (RS15)      
1 23439U 94085A   26128.91540755 -.00000046  00000+0 -90864-4 0  9994
2 23439  64.8197   6.7311 0154848  11.0502 349.3761 11.27583729291476
JAS-2 (FO-29)           
1 24278U 96046B   26128.82912289 -.00000043  00000+0 -76989-5 0  9990
2 24278  98.5284 343.0831 0349524 198.4143 160.4079 13.53272353467840
TECHSAT 1B (GO-32)      
1 25397U 98043D   26128.93893226  .00000047  00000+0  40359-4 0  9996
2 25397  99.0062 120.7101 0001218  20.8971 339.2256 14.24420628445742
ISS (ZARYA)             
1 25544U 98067A   26128.77995169  .00007005  00000+0  13445-3 0  9993
2 25544  51.6310 135.1683 0007382  37.9322 322.2185 15.49151526565649
PCSAT (NO-44)           
1 26931U 01043C   26128.90598834  .00000085  00000+0  62822-4 0  9990
2 26931  67.0517 345.8716 0006341 263.8150  96.2229 14.31940771284823
SAUDISAT 1C (SO-50)     
1 27607U 02058C   26128.77363423  .00000968  00000+0  13154-3 0  9990
2 27607  64.5523 250.9199 0075632 269.6660  89.5780 14.82963353258615
CUTE-1 (CO-55)          
1 27844U 03031E   26128.55744908  .00000243  00000+0  12404-3 0  9995
2 27844  98.6748 137.6136 0008484 305.0513  54.9869 14.24311023186037
CUBESAT XI-IV (CO-57)   
1 27848U 03031J   26128.94778705  .00000210  00000+0  11154-3 0  9999
2 27848  98.6780 137.7433 0008676 324.4817  35.5783 14.23599657185795
MOZHAETS 4 (RS22)       
1 27939U 03042A   26128.97275620  .00001267  00000+0  20361-3 0  9996
2 27939  98.3473 312.2261 0012108  38.3499  88.0761 14.73400313209772
CUBESAT XI-V            
1 28895U 05043F   26128.92429491  .00001142  00000+0  18795-3 0  9993
2 28895  98.2943 283.7343 0013386 334.8473  25.2080 14.72528648 95976
CUTE-1.7+APD II (CO-65) 
1 32785U 08021C   26128.93313136  .00004308  00000+0  27581-3 0  9994
2 32785  97.8267 109.5531 0009790 151.7273 208.4488 15.09085158979271
SEEDS II (CO-66)        
1 32791U 08021J   26128.94683835  .00017483  00000+0  57786-3 0  9996
2 32791  97.7533 125.0165 0005117  92.4427 267.7399 15.31425917981289
YUBILEINY (RS30)        
1 32953U 08025A   26128.98612171  .00000005  00000+0 -33932-4 0  9990
2 32953  82.5070  19.8242 0020426  38.8065 321.4477 12.43177921814824
KKS-1 (KISEKI)          
1 33499U 09002H   26128.85490012  .00001115  00000+0  14395-3 0  9999
2 33499  98.1192  50.6770 0009212  62.6427 297.5723 14.83022010930363
SWISSCUBE               
1 35932U 09051B   26128.69072574  .00000838  00000+0  17535-3 0  9998
2 35932  98.4059  35.8891 0006513 347.8843  12.2200 14.62404724883386
